NORAD_CAT_ID,OBJECT_NAME,OBJECT_TYPE,EPOCH,MEAN_MOTION,ECCENTRICITY,INCLINATION,RA_OF_ASC_NODE,ARG_OF_PERICENTER,MEAN_ANOMALY,BSTAR,MEAN_MOTION_DOT,MEAN_MOTION_DDOT,TLE_LINE0,TLE_LINE1,TLE_LINE2,SEMIMAJOR_AXIS,PERIOD,APOGEE,PERIGEE,DECAYED
55948.0,STARLINK-5900,PAYLOAD,2024-08-17 07:40:56,14.98355376,0.0003546,69.9993,260.1803,272.3214,87.7539,0.00070676,8.356e-05,0.0,0 STARLINK-5900,1 55948U 23037AL  24230.32009433  .00008356  00000-0  70676-3 0  9992,2 55948  69.9993 260.1803 0003546 272.3214  87.7539 14.98355376 79182,6950.114,96.105,574.444,569.515,0.0
55948.0,STARLINK-5900,PAYLOAD,2024-08-18 04:30:40,14.98349083,0.0003447,69.9991,257.9921,273.2691,86.8073,0.00021655,2.493e-05,0.0,0 STARLINK-5900,1 55948U 23037AL  24231.18796650  .00002493  00000-0  21655-3 0  9990,2 55948  69.9991 257.9921 0003447 273.2691  86.8073 14.98349083 79657,6950.134,96.106,574.395,569.603,0.0
55948.0,STARLINK-5900,PAYLOAD,2024-08-18 06:06:48,14.9834795,0.0003461,69.9991,257.8237,272.9472,87.1291,0.0001735,1.979e-05,0.0,0 STARLINK-5900,1 55948U 23037AL  24231.25472597  .00001979  00000-0  17350-3 0  9994,2 55948  69.9991 257.8237 0003461 272.9472  87.1291 14.98347950 79326,6950.137,96.106,574.408,569.597,0.0
55948.0,STARLINK-5900,PAYLOAD,2024-08-18 12:31:19,14.98363764,0.0003464,69.999,257.1506,268.6896,91.3866,0.00046281,5.438e-05,0.0,0 STARLINK-5900,1 55948U 23037AL  24231.52175450  .00005438  00000-0  46281-3 0  9991,2 55948  69.9990 257.1506 0003464 268.6896  91.3866 14.98363764 79700,6950.088,96.105,574.361,569.546,0.0
55948.0,STARLINK-5900,PAYLOAD,2024-08-19 04:32:40,14.98336387,0.0003282,69.9999,255.4678,267.5223,92.5561,-0.0001035,-1.328e-05,0.0,0 STARLINK-5900,1 55948U 23037AL  24232.18936296 -.00001328  00000-0 -10350-3 0  9991,2 55948  69.9999 255.4678 0003282 267.5223  92.5561 14.98336387 79807,6950.173,96.107,574.319,569.757,0.0
55948.0,STARLINK-5900,PAYLOAD,2024-08-19 09:21:05,14.98331916,0.0003464,69.9976,254.9615,271.2256,88.8506,-0.00010957,-1.4e-05,0.0,0 STARLINK-5900,1 55948U 23037AL  24232.38965083 -.00001400  00000-0 -10957-3 0  9993,2 55948  69.9976 254.9615 0003464 271.2256  88.8506 14.98331916 79830,6950.187,96.107,574.46,569.644,0.0
55948.0,STARLINK-5900,PAYLOAD,2024-08-20 10:59:14,14.98334399,0.0003445,69.9975,252.2679,269.4252,90.6512,4.071e-05,3.93e-06,0.0,0 STARLINK-5900,1 55948U 23037AL  24233.45780504  .00000393  00000-0  40710-4 0  9994,2 55948  69.9975 252.2679 0003445 269.4252  90.6512 14.98334399 79997,6950.179,96.107,574.439,569.65,0.0
55948.0,STARLINK-5900,PAYLOAD,2024-08-21 11:01:15,14.98333534,0.0003352,69.9987,249.7431,268.9955,91.082,0.00029511,3.43e-05,0.0,0 STARLINK-5900,1 55948U 23037AL  24234.45920592  .00003430  00000-0  29511-3 0  9998,2 55948  69.9987 249.7431 0003352 268.9955  91.0820 14.98333534 80144,6950.182,96.107,574.377,569.717,0.0
